{
"type": "FeatureCollection",
"name": "puntos_verdes",
"crs": { "type": "name", "properties": { "name": "urn:ogc:def:crs:OGC:1.3:CRS84" } },
"features": [
{ "type": "Feature", "properties": { "id": 6, "nombre": "Estación Lugano", "tipo": "Con Atención", "materiales": "Aceite vegetal usado (en botellas cerradas) - Bolsas de comida para perro - Botella de AMOR - Cápsulas de café - Pilas - RAEES", "horario": "Horario de atención Martes a Viernes de 14 a 19 y Sábados de 10 a 18 h.", "observacio": "Aceite usado en botella de plástico cerrada y en frio. Fuera de ese horario pueden dejar su reciclables en las bocas de recepción que funcionan las 24 hs.", "direccion": "Murguiondo 4121", "barrio": "Villa Lugano", "comuna": "Comuna 8" }, "geometry": { "type": "Point", "coordinates": [ -58.47612114749537, -34.676666324374658 ] } },
{ "type": "Feature", "properties": { "id": 11, "nombre": "Parque Las Heras", "tipo": "Con Atención", "materiales": "Aceite vegetal usado (en botellas cerradas) - Bolsas de comida para perro - Botella de AMOR - Cápsulas de café - Pilas - RAEES", "horario": "Horario de atención Martes a Viernes de 14 a 19 y Sábados de 10 a 18 h.", "observacio": "Aceite usado en botella de plástico cerrada y en frio. Fuera de ese horario pueden dejar su reciclables en las bocas de recepción que funcionan las 24 hs.", "direccion": "Diaz, Cnel. Av. 2437", "barrio": "Recoleta", "comuna": "Comuna 2" }, "geometry": { "type": "Point", "coordinates": [ -58.406766593579967, -34.584482732241661 ] } },
{ "type": "Feature", "properties": { "id": 14, "nombre": "Parque Saavedra", "tipo": "Con Atención", "materiales": "Aceite vegetal usado (en botellas cerradas) - Bolsas de comida para perro - Botella de AMOR - Cápsulas de café - Pilas - RAEES", "horario": "Horario de atención Martes a Viernes de 14 a 19 y Sábados de 10 a 18 h.", "observacio": "Aceite usado en botella de plástico cerrada y en frio. Fuera de ese horario pueden dejar su reciclables en las bocas de recepción que funcionan las 24 hs.", "direccion": "Paroissien y Perez, Roque", "barrio": "Saavedra", "comuna": "Comuna 12" }, "geometry": { "type": "Point", "coordinates": [ -58.48205963517308, -34.551783756799573 ] } },
{ "type": "Feature", "properties": { "id": 17, "nombre": "Parque Santojanni", "tipo": "Con Atención", "materiales": "Aceite vegetal usado (en botellas cerradas) - Bolsas de comida para perro - Botella de AMOR - Cápsulas de café - Pilas - RAEES", "horario": "Horario de atención Martes a Viernes de 14 a 19 y Sábados de 10 a 18 h.", "observacio": "Aceite usado en botella de plástico cerrada y en frio. Fuera de ese horario pueden dejar su reciclables en las bocas de recepción que funcionan las 24 hs.", "direccion": "De La Torre, Lisandro y Acassuso", "barrio": "Liniers", "comuna": "Comuna 9" }, "geometry": { "type": "Point", "coordinates": [ -58.515890504018451, -34.650422516392887 ] } },
{ "type": "Feature", "properties": { "id": 21, "nombre": "Plaza 1º de Mayo", "tipo": "Con Atención", "materiales": "Aceite vegetal usado (en botellas cerradas) - Bolsas de comida para perro - Botella de AMOR - Cápsulas de café - Pilas - RAEES", "horario": "Horario de atención Martes a Viernes de 14 a 19 y Sábados de 10 a 18 h.", "observacio": "Aceite usado en botella de plástico cerrada y en frio. Fuera de ese horario pueden dejar su reciclables en las bocas de recepción que funcionan las 24 hs.", "direccion": "Yrigoyen, Hipolito y Pasco", "barrio": "Balvanera", "comuna": "Comuna 3" }, "geometry": { "type": "Point", "coordinates": [ -58.397478338104001, -34.610681148930126 ] } },
{ "type": "Feature", "properties": { "id": 24, "nombre": "Plaza Almagro", "tipo": "Con Atención", "materiales": "Aceite vegetal usado (en botellas cerradas) - Bolsas de comida para perro - Botella de AMOR - Cápsulas de café - Pilas - RAEES", "horario": "Horario de atención Martes a Viernes de 14 a 19 y Sábados de 10 a 18 h.", "observacio": "Aceite usado en botella de plástico cerrada y en frio. Fuera de ese horario pueden dejar su reciclables en las bocas de recepción que funcionan las 24 hs.", "direccion": "Bulnes y Sarmiento", "barrio": "Almagro", "comuna": "Comuna 5" }, "geometry": { "type": "Point", "coordinates": [ -58.418357794620604, -34.605279861092683 ] } },
{ "type": "Feature", "properties": { "id": 26, "nombre": "Plaza Arenales", "tipo": "Con Atención", "materiales": "Aceite vegetal usado (en botellas cerradas) - Bolsas de comida para perro - Botella de AMOR - Cápsulas de café - Pilas - RAEES", "horario": "Horario de atención Martes a Viernes de 14 a 19 y Sábados de 10 a 18 h.", "observacio": "Aceite usado en botella de plástico cerrada y en frio. Fuera de ese horario pueden dejar su reciclables en las bocas de recepción que funcionan las 24 hs.", "direccion": "Bahia Blanca y Pareja", "barrio": "Villa Devoto", "comuna": "Comuna 11" }, "geometry": { "type": "Point", "coordinates": [ -58.512033659301082, -34.598132864631765 ] } },
{ "type": "Feature", "properties": { "id": 27, "nombre": "Plaza Aristóbulo del Valle", "tipo": "Con Atención", "materiales": "Aceite vegetal usado (en botellas cerradas) - Bolsas de comida para perro - Botella de AMOR - Cápsulas de café - Pilas - RAEES", "horario": "Horario de atención Martes a Viernes de 14 a 19 y Sábados de 10 a 18 h.", "observacio": "Aceite usado en botella de plástico cerrada y en frio. Fuera de ese horario pueden dejar su reciclables en las bocas de recepción que funcionan las 24 hs.", "direccion": "Baigorria y Campana", "barrio": "Villa Del Parque", "comuna": "Comuna 11" }, "geometry": { "type": "Point", "coordinates": [ -58.494006325539175, -34.605491898124562 ] } },
{ "type": "Feature", "properties": { "id": 30, "nombre": "Plaza Benito Nazar", "tipo": "Con Atención", "materiales": "Aceite vegetal usado (en botellas cerradas) - Bolsas de comida para perro - Botella de AMOR - Cápsulas de café - Pilas - RAEES", "horario": "Horario de atención Martes a Viernes de 14 a 19 y Sábados de 10 a 18 h.", "observacio": "Aceite usado en botella de plástico cerrada y en frio. Fuera de ese horario pueden dejar su reciclables en las bocas de recepción que funcionan las 24 hs.", "direccion": "Antezana y Olaya", "barrio": "Villa Crespo", "comuna": "Comuna 15" }, "geometry": { "type": "Point", "coordinates": [ -58.444662659712804, -34.60489839654926 ] } },
{ "type": "Feature", "properties": { "id": 33, "nombre": "Plaza Castelli", "tipo": "Con Atención", "materiales": "Aceite vegetal usado (en botellas cerradas) - Bolsas de comida para perro - Botella de AMOR - Cápsulas de café - Pilas - RAEES", "horario": "Horario de atención Martes a Viernes de 14 a 19 y Sábados de 10 a 18 h.", "observacio": "Aceite usado en botella de plástico cerrada y en frio. Fuera de ese horario pueden dejar su reciclables en las bocas de recepción que funcionan las 24 hs.", "direccion": "Juramento y Conde", "barrio": "Belgrano", "comuna": "Comuna 13" }, "geometry": { "type": "Point", "coordinates": [ -58.465508807854974, -34.567257834808501 ] } },
{ "type": "Feature", "properties": { "id": 35, "nombre": "Plaza Colombia", "tipo": "Con Atención", "materiales": "Aceite vegetal usado (en botellas cerradas) - Bolsas de comida para perro - Botella de AMOR - Cápsulas de café - Cartón - Metal - Orgánicos - Papel - Pilas - Plástico - RAEES - Telgopor - Tetra-brik - Vidrio", "horario": "Horario de atención Martes a Viernes de 14 a 19 y Sábados de 10 a 18 h.", "observacio": "Aceite usado en botella de plástico cerrada y en frio. Fuera de ese horario pueden dejar su reciclables en las bocas de recepción que funcionan las 24 hs.", "direccion": "Brandsen y Montes De Oca, Manuel Av.", "barrio": "Barracas", "comuna": "Comuna 4" }, "geometry": { "type": "Point", "coordinates": [ -58.37444211428307, -34.637869717729778 ] } },
{ "type": "Feature", "properties": { "id": 38, "nombre": "Plaza de La Misericordia", "tipo": "Con Atención", "materiales": "Aceite vegetal usado (en botellas cerradas) - Bolsas de comida para perro - Botella de AMOR - Cápsulas de café - Pilas - RAEES", "horario": "Horario de atención Martes a Viernes de 14 a 19 y Sábados de 10 a 18 h.", "observacio": "Aceite usado en botella de plástico cerrada y en frio. Fuera de ese horario pueden dejar su reciclables en las bocas de recepción que funcionan las 24 hs.", "direccion": "Bilbao, Francisco y Lautaro", "barrio": "Flores", "comuna": "Comuna 7" }, "geometry": { "type": "Point", "coordinates": [ -58.454993640235365, -34.63288795950816 ] } },
{ "type": "Feature", "properties": { "id": 41, "nombre": "Plaza Don Bosco", "tipo": "Con Atención", "materiales": "Aceite vegetal usado (en botellas cerradas) - Bolsas de comida para perro - Botella de AMOR - Cápsulas de café - Pilas - RAEES", "horario": "Horario de atención Martes a Viernes de 14 a 19 y Sábados de 10 a 18 h.", "observacio": "Aceite usado en botella de plástico cerrada y en frio. Fuera de ese horario pueden dejar su reciclables en las bocas de recepción que funcionan las 24 hs.", "direccion": "Lope De Vega Av. y Gonzalez, Elpidio", "barrio": "Monte Castro", "comuna": "Comuna 10" }, "geometry": { "type": "Point", "coordinates": [ -58.508309341820365, -34.626829358717671 ] } },
{ "type": "Feature", "properties": { "id": 43, "nombre": "Plaza Echeverría", "tipo": "Con Atención", "materiales": "Aceite vegetal usado (en botellas cerradas) - Bolsas de comida para perro - Botella de AMOR - Cápsulas de café - Pilas - RAEES", "horario": "Horario de atención Martes a Viernes de 14 a 19 y Sábados de 10 a 18 h.", "observacio": "Aceite usado en botella de plástico cerrada y en frio. Fuera de ese horario pueden dejar su reciclables en las bocas de recepción que funcionan las 24 hs.", "direccion": "Rivera, Pedro I., Dr. y Bauness", "barrio": "Villa Urquiza", "comuna": "Comuna 12" }, "geometry": { "type": "Point", "coordinates": [ -58.489557617280681, -34.57272105189643 ] } },
{ "type": "Feature", "properties": { "id": 48, "nombre": "Plaza Irlanda", "tipo": "Con Atención", "materiales": "Aceite vegetal usado (en botellas cerradas) - Bolsas de comida para perro - Botella de AMOR - Cápsulas de café - Pilas - RAEES", "horario": "Horario de atención Martes a Viernes de 14 a 19 y Sábados de 10 a 18 h.", "observacio": "Aceite usado en botella de plástico cerrada y en frio. Fuera de ese horario pueden dejar su reciclables en las bocas de recepción que funcionan las 24 hs.", "direccion": "Alvarez, Donato, Tte. Gral. y Gaona Av.", "barrio": "Caballito", "comuna": "Comuna 6" }, "geometry": { "type": "Point", "coordinates": [ -58.45942942302662, -34.613876719859419 ] } },
{ "type": "Feature", "properties": { "id": 53, "nombre": "Plaza Manuel Belgrano", "tipo": "Con Atención", "materiales": "Aceite vegetal usado (en botellas cerradas) - Bolsas de comida para perro - Botella de AMOR - Cápsulas de café - Pilas - RAEES", "horario": "Horario de atención Martes a Viernes de 14 a 19 y Sábados de 10 a 18 h.", "observacio": "Aceite usado en botella de plástico cerrada y en frio. Fuera de ese horario pueden dejar su reciclables en las bocas de recepción que funcionan las 24 hs.", "direccion": "Echeverria y Cuba", "barrio": "Belgrano", "comuna": "Comuna 13" }, "geometry": { "type": "Point", "coordinates": [ -58.453948087391126, -34.561847588036443 ] } },
{ "type": "Feature", "properties": { "id": 56, "nombre": "Plaza Mariano Boedo", "tipo": "Con Atención", "materiales": "Aceite vegetal usado (en botellas cerradas) - Bolsas de comida para perro - Botella de AMOR - Cápsulas de café - Pilas - RAEES", "horario": "Horario de atención Martes a Viernes de 14 a 19 y Sábados de 10 a 18 h.", "observacio": "Aceite usado en botella de plástico cerrada y en frio. Fuera de ese horario pueden dejar su reciclables en las bocas de recepción que funcionan las 24 hs.", "direccion": "Sanchez De Loria y Estados Unidos", "barrio": "Boedo", "comuna": "Comuna 5" }, "geometry": { "type": "Point", "coordinates": [ -58.412441511931533, -34.621881152120245 ] } },
{ "type": "Feature", "properties": { "id": 59, "nombre": "Plaza Monseñor De Andrea", "tipo": "Con Atención", "materiales": "Aceite vegetal usado (en botellas cerradas) - Bolsas de comida para perro - Botella de AMOR - Cápsulas de café - Pilas - RAEES", "horario": "Horario de atención Martes a Viernes de 14 a 19 y Sábados de 10 a 18 h.", "observacio": "Aceite usado en botella de plástico cerrada y en frio. Fuera de ese horario pueden dejar su reciclables en las bocas de recepción que funcionan las 24 hs.", "direccion": "Cabrera, Jose A. y Anchorena, Tomas Manuel De, Dr.", "barrio": "Recoleta", "comuna": "Comuna 2" }, "geometry": { "type": "Point", "coordinates": [ -58.407563688591708, -34.596986614817148 ] } },
{ "type": "Feature", "properties": { "id": 65, "nombre": "Plaza Rivadavia", "tipo": "Con Atención", "materiales": "Aceite vegetal usado (en botellas cerradas) - Bolsas de comida para perro - Botella de AMOR - Cápsulas de café - Pilas - RAEES", "horario": "Horario de atención Martes a Viernes de 14 a 19 y Sábados de 10 a 18 h.", "observacio": "Aceite usado en botella de plástico cerrada y en frio. Fuera de ese horario pueden dejar su reciclables en las bocas de recepción que funcionan las 24 hs.", "direccion": "Rivadavia Av. y Balcarce, Florencio", "barrio": "Caballito", "comuna": "Comuna 6" }, "geometry": { "type": "Point", "coordinates": [ -58.434739712462445, -34.617535326976757 ] } },
{ "type": "Feature", "properties": { "id": 68, "nombre": "Plaza Rosario Vera Peñalozza", "tipo": "Con Atención", "materiales": "Aceite vegetal usado (en botellas cerradas) - Bolsas de comida para perro - Botella de AMOR - Cápsulas de café - Pilas - RAEES", "horario": "Horario de atención Martes a Viernes de 14 a 19 y Sábados de 10 a 18 h.", "observacio": "Aceite usado en botella de plástico cerrada y en frio. Fuera de ese horario pueden dejar su reciclables en las bocas de recepción que funcionan las 24 hs.", "direccion": "San Juan Av. y Chacabuco", "barrio": "San Telmo", "comuna": "Comuna 1" }, "geometry": { "type": "Point", "coordinates": [ -58.375652111778244, -34.622000787766169 ] } },
{ "type": "Feature", "properties": { "id": 73, "nombre": "Plaza Velez Sarsfield", "tipo": "Con Atención", "materiales": "Aceite vegetal usado (en botellas cerradas) - Bolsas de comida para perro - Botella de AMOR - Cápsulas de café - Pilas - RAEES", "horario": "Horario de atención Martes a Viernes de 14 a 19 y Sábados de 10 a 18 h.", "observacio": "Aceite usado en botella de plástico cerrada y en frio. Fuera de ese horario pueden dejar su reciclables en las bocas de recepción que funcionan las 24 hs.", "direccion": "Chivilcoy y Bogota", "barrio": "Floresta", "comuna": "Comuna 10" }, "geometry": { "type": "Point", "coordinates": [ -58.483200213109818, -34.63055777272983 ] } }
]
}